*******************************************************************************
Ephemeris / WWW_USER Fri Mar  7 11:16:33 2025 Pasadena, USA      / Horizons    
*******************************************************************************
Target body name: (2018 VC)                       {source: JPL#21}
Center body name: Earth (399)                     {source: DE441}
Center-site name: Mauna Kea
*******************************************************************************
Start time      : A.D. 2018-Nov-28 03:51:00.0000 UT      
Stop  time      : A.D. 2018-Nov-28 16:28:00.0000 UT      
Step-size       : 1 minutes
*******************************************************************************
Target pole/equ : undefined
Target radii    : undefined                                                    
Center geodetic : 204.5278, 19.8260847, 4.21024   {E-lon(deg),Lat(deg),Alt(km)}
Center cylindric: 204.5278, 6006.35451, 2151.0229 {E-lon(deg),Dxy(km),Dz(km)}
Center pole/equ : ITRF93                          {East-longitude positive}
Center radii    : 6378.137, 6378.137, 6356.752 km {Equator_a, b, pole_c}       
Target primary  : Sun
Vis. interferer : MOON (R_eq= 1737.400) km        {source: DE441}
Rel. light bend : Sun                             {source: DE441}
Rel. lght bnd GM: 1.3271E+11 km^3/s^2                                          
Small-body perts: Yes                             {source: SB441-N16}
Atmos refraction: NO (AIRLESS)
RA format       : HMS
Time format     : CAL 
Calendar mode   : Mixed Julian/Gregorian
RTS-only print  : NO       
EOP file        : eop.250306.p250602                                           
EOP coverage    : DATA-BASED 1962-JAN-20 TO 2025-MAR-06. PREDICTS-> 2025-JUN-01
Units conversion: 1 au= 149597870.700 km, c= 299792.458 km/s, 1 day= 86400.0 s 
Table cut-offs 1: Elevation (-90.0deg=NO ),Airmass (>38.000=NO), Daylight (YES)
Table cut-offs 2: Solar elongation (  0.0,180.0=NO ),Local Hour Angle( 0.0=NO )
Table cut-offs 3: RA/DEC angular rate (     0.0=NO )                           
*******************************************************************************
Initial IAU76/J2000 heliocentric ecliptic osculating elements (au, days, deg.):
  EPOCH=  2458962.5 ! 2020-Apr-23.00 (TDB)         Residual RMS= .087367       
   EC= .1691367762722357   QR= .9358500167919792   TP= 2458809.0997793972      
   OM= 36.58853997425776   W=  304.3228784920618   IN= 3.701146998496158       
  Equivalent ICRF heliocentric cartesian coordinates (au, au/d):
   X=-6.479543737333916E-01  Y= 9.538692942598190E-01  Z= 5.016232001756915E-01
  VX=-1.316843360643849E-02 VY=-5.467047892625660E-03 VZ=-2.149198049185293E-03
Asteroid physical parameters (km, seconds, rotational period in hours):        
   GM= n.a.                RAD= n.a.               ROTPER= n.a.                
   H= 26.34                G= .150                 B-V= n.a.                   
                           ALBEDO= n.a.            STYP= n.a.                  
*******************************************************************************
 Date__(UT)__HR:MN     R.A._________(ICRF)_________DEC
******************************************************
$$SOE
 2018-Nov-28 05:54     02 39 31.291975 +36 22 03.55147
 2018-Nov-28 05:55     02 39 31.300326 +36 22 03.56633
 2018-Nov-28 05:56     02 39 31.308591 +36 22 03.58041
 2018-Nov-28 05:57     02 39 31.316770 +36 22 03.59371
 2018-Nov-28 05:58     02 39 31.324863 +36 22 03.60623
 2018-Nov-28 05:59     02 39 31.332872 +36 22 03.61796
 2018-Nov-28 06:00     02 39 31.340796 +36 22 03.62890
 2018-Nov-28 06:01     02 39 31.348636 +36 22 03.63906
 2018-Nov-28 06:02     02 39 31.356392 +36 22 03.64842
 2018-Nov-28 06:03     02 39 31.364066 +36 22 03.65699
 2018-Nov-28 06:04     02 39 31.371657 +36 22 03.66476
 2018-Nov-28 06:05     02 39 31.379165 +36 22 03.67173
 2018-Nov-28 06:06     02 39 31.386592 +36 22 03.67789
 2018-Nov-28 06:07     02 39 31.393939 +36 22 03.68325
 2018-Nov-28 06:08     02 39 31.401204 +36 22 03.68780
 2018-Nov-28 06:09     02 39 31.408389 +36 22 03.69154
 2018-Nov-28 06:10     02 39 31.415495 +36 22 03.69447
 2018-Nov-28 06:11     02 39 31.422521 +36 22 03.69658
 2018-Nov-28 06:12     02 39 31.429469 +36 22 03.69788
 2018-Nov-28 06:13     02 39 31.436339 +36 22 03.69835
 2018-Nov-28 06:14     02 39 31.443131 +36 22 03.69800
 2018-Nov-28 06:15     02 39 31.449846 +36 22 03.69682
 2018-Nov-28 06:16     02 39 31.456484 +36 22 03.69482
 2018-Nov-28 06:17     02 39 31.463046 +36 22 03.69199
 2018-Nov-28 06:18     02 39 31.469532 +36 22 03.68832
 2018-Nov-28 06:19     02 39 31.475943 +36 22 03.68382
 2018-Nov-28 06:20     02 39 31.482279 +36 22 03.67848
 2018-Nov-28 06:21     02 39 31.488542 +36 22 03.67231
 2018-Nov-28 06:22     02 39 31.494730 +36 22 03.66529
 2018-Nov-28 06:23     02 39 31.500846 +36 22 03.65742
 2018-Nov-28 06:24     02 39 31.506889 +36 22 03.64871
 2018-Nov-28 06:25     02 39 31.512860 +36 22 03.63915
 2018-Nov-28 06:26     02 39 31.518759 +36 22 03.62874
 2018-Nov-28 06:27     02 39 31.524587 +36 22 03.61748
 2018-Nov-28 06:28     02 39 31.530344 +36 22 03.60536
 2018-Nov-28 06:29     02 39 31.536032 +36 22 03.59239
 2018-Nov-28 06:30     02 39 31.541650 +36 22 03.57855
 2018-Nov-28 06:31     02 39 31.547199 +36 22 03.56385
 2018-Nov-28 06:32     02 39 31.552679 +36 22 03.54829
 2018-Nov-28 06:33     02 39 31.558091 +36 22 03.53186
 2018-Nov-28 06:34     02 39 31.563436 +36 22 03.51457
 2018-Nov-28 06:35     02 39 31.568714 +36 22 03.49640
 2018-Nov-28 06:36     02 39 31.573926 +36 22 03.47736
 2018-Nov-28 06:37     02 39 31.579072 +36 22 03.45745
 2018-Nov-28 06:38     02 39 31.584152 +36 22 03.43666
 2018-Nov-28 06:39     02 39 31.589168 +36 22 03.41499
 2018-Nov-28 06:40     02 39 31.594120 +36 22 03.39244
 2018-Nov-28 06:41     02 39 31.599007 +36 22 03.36901
 2018-Nov-28 06:42     02 39 31.603832 +36 22 03.34469
 2018-Nov-28 06:43     02 39 31.608593 +36 22 03.31949
 2018-Nov-28 06:44     02 39 31.613293 +36 22 03.29340
 2018-Nov-28 06:45     02 39 31.617931 +36 22 03.26642
 2018-Nov-28 06:46     02 39 31.622508 +36 22 03.23854
 2018-Nov-28 06:47     02 39 31.627025 +36 22 03.20977
 2018-Nov-28 06:48     02 39 31.631481 +36 22 03.18011
 2018-Nov-28 06:49     02 39 31.635878 +36 22 03.14955
 2018-Nov-28 06:50     02 39 31.640217 +36 22 03.11809
 2018-Nov-28 06:51     02 39 31.644496 +36 22 03.08572
 2018-Nov-28 06:52     02 39 31.648718 +36 22 03.05245
 2018-Nov-28 06:53     02 39 31.652883 +36 22 03.01828
 2018-Nov-28 06:54     02 39 31.656991 +36 22 02.98320
 2018-Nov-28 06:55     02 39 31.661043 +36 22 02.94722
 2018-Nov-28 06:56     02 39 31.665040 +36 22 02.91032
 2018-Nov-28 06:57     02 39 31.668981 +36 22 02.87251
 2018-Nov-28 06:58     02 39 31.672868 +36 22 02.83378
 2018-Nov-28 06:59     02 39 31.676701 +36 22 02.79414
 2018-Nov-28 07:00     02 39 31.680480 +36 22 02.75358
 2018-Nov-28 07:01     02 39 31.684207 +36 22 02.71211
 2018-Nov-28 07:02     02 39 31.687881 +36 22 02.66971
 2018-Nov-28 07:03     02 39 31.691504 +36 22 02.62639
 2018-Nov-28 07:04     02 39 31.695075 +36 22 02.58215
 2018-Nov-28 07:05     02 39 31.698596 +36 22 02.53698
 2018-Nov-28 07:06     02 39 31.702067 +36 22 02.49089
 2018-Nov-28 07:07     02 39 31.705488 +36 22 02.44386
 2018-Nov-28 07:08     02 39 31.708860 +36 22 02.39591
 2018-Nov-28 07:09     02 39 31.712184 +36 22 02.34703
 2018-Nov-28 07:10     02 39 31.715460 +36 22 02.29721
 2018-Nov-28 07:11     02 39 31.718689 +36 22 02.24646
 2018-Nov-28 07:12     02 39 31.721871 +36 22 02.19477
 2018-Nov-28 07:13     02 39 31.725008 +36 22 02.14214
 2018-Nov-28 07:14     02 39 31.728098 +36 22 02.08858
 2018-Nov-28 07:15     02 39 31.731144 +36 22 02.03408
 2018-Nov-28 07:16     02 39 31.734145 +36 22 01.97863
 2018-Nov-28 07:17     02 39 31.737103 +36 22 01.92224
 2018-Nov-28 07:18     02 39 31.740017 +36 22 01.86491
 2018-Nov-28 07:19     02 39 31.742888 +36 22 01.80663
 2018-Nov-28 07:20     02 39 31.745718 +36 22 01.74741
 2018-Nov-28 07:21     02 39 31.748505 +36 22 01.68723
 2018-Nov-28 07:22     02 39 31.751252 +36 22 01.62611
 2018-Nov-28 07:23     02 39 31.753959 +36 22 01.56404
 2018-Nov-28 07:24     02 39 31.756625 +36 22 01.50101
 2018-Nov-28 07:25     02 39 31.759253 +36 22 01.43703
 2018-Nov-28 07:26     02 39 31.761841 +36 22 01.37210
 2018-Nov-28 07:27     02 39 31.764392 +36 22 01.30621
 2018-Nov-28 07:28     02 39 31.766905 +36 22 01.23937
 2018-Nov-28 07:29     02 39 31.769381 +36 22 01.17157
 2018-Nov-28 07:30     02 39 31.771821 +36 22 01.10280
 2018-Nov-28 07:31     02 39 31.774225 +36 22 01.03308
 2018-Nov-28 07:32     02 39 31.776594 +36 22 00.96240
 2018-Nov-28 07:33     02 39 31.778928 +36 22 00.89075
 2018-Nov-28 07:34     02 39 31.781228 +36 22 00.81815
 2018-Nov-28 07:35     02 39 31.783495 +36 22 00.74457
 2018-Nov-28 07:36     02 39 31.785729 +36 22 00.67003
 2018-Nov-28 07:37     02 39 31.787931 +36 22 00.59453
 2018-Nov-28 07:38     02 39 31.790100 +36 22 00.51806
 2018-Nov-28 07:39     02 39 31.792239 +36 22 00.44062
 2018-Nov-28 07:40     02 39 31.794348 +36 22 00.36221
 2018-Nov-28 07:41     02 39 31.796426 +36 22 00.28283
 2018-Nov-28 07:42     02 39 31.798475 +36 22 00.20248
 2018-Nov-28 07:43     02 39 31.800495 +36 22 00.12115
 2018-Nov-28 07:44     02 39 31.802487 +36 22 00.03886
 2018-Nov-28 07:45     02 39 31.804452 +36 21 59.95559
 2018-Nov-28 07:46     02 39 31.806389 +36 21 59.87134
 2018-Nov-28 07:47     02 39 31.808300 +36 21 59.78612
 2018-Nov-28 07:48     02 39 31.810185 +36 21 59.69993
 2018-Nov-28 07:49     02 39 31.812045 +36 21 59.61275
 2018-Nov-28 07:50     02 39 31.813881 +36 21 59.52460
 2018-Nov-28 07:51     02 39 31.815692 +36 21 59.43547
 2018-Nov-28 07:52     02 39 31.817480 +36 21 59.34537
 2018-Nov-28 07:53     02 39 31.819245 +36 21 59.25428
 2018-Nov-28 07:54     02 39 31.820988 +36 21 59.16221
 2018-Nov-28 07:55     02 39 31.822709 +36 21 59.06916
 2018-Nov-28 07:56     02 39 31.824409 +36 21 58.97513
